[{"OBJECT_NAME":"COSMOS 2416 (RODNIK-S 1)","OBJECT_ID":"2005-048A","EPOCH":"2026-03-09T21:52:55.501536","MEAN_MOTION":12.55596711,"ECCENTRICITY":0.00089122,"INCLINATION":82.4736,"RA_OF_ASC_NODE":11.1411,"ARG_OF_PERICENTER":35.8698,"MEAN_ANOMALY":25.1897,"EPHEMERIS_TYPE":0,"CLASSIFICATION_TYPE":"U","NORAD_CAT_ID":28908,"ELEMENT_SET_NO":999,"REV_AT_EPOCH":92644,"BSTAR":0.00028202479,"MEAN_MOTION_DOT":5.6e-7,"MEAN_MOTION_DDOT":0},{"OBJECT_NAME":"BREEZE-KM DEB","OBJECT_ID":"2015-020L","EPOCH":"2026-03-08T03:10:36.885504","MEAN_MOTION":12.92886112,"ECCENTRICITY":0.02211074,"INCLINATION":82.486,"RA_OF_ASC_NODE":217.4544,"ARG_OF_PERICENTER":105.5363,"MEAN_ANOMALY":257.0274,"EPHEMERIS_TYPE":0,"CLASSIFICATION_TYPE":"U","NORAD_CAT_ID":41723,"ELEMENT_SET_NO":999,"REV_AT_EPOCH":48627,"BSTAR":0.00078945926,"MEAN_MOTION_DOT":2.53e-6,"MEAN_MOTION_DDOT":0}]
